CCSDS_OMM_VERS = 2.0
CREATION_DATE  = 
ORIGINATOR     = 

OBJECT_NAME    = STARLINK-36144
OBJECT_ID      = 2026-033J
CENTER_NAME    = EARTH
REF_FRAME      = TEME
TIME_SYSTEM    = UTC
MEAN_ELEMENT_THEORY = SGP/SGP4

EPOCH          = 2026-03-08T14:45:40.466880
MEAN_MOTION    = 15.82140327
ECCENTRICITY   = .00010544
INCLINATION    = 42.9975
RA_OF_ASC_NODE = 278.0255
ARG_OF_PERICENTER = 264.4461
MEAN_ANOMALY   = 95.6290

EPHEMERIS_TYPE = 0
CLASSIFICATION_TYPE = U
NORAD_CAT_ID   = 67829
ELEMENT_SET_NO = 999
REV_AT_EPOCH   = 445
BSTAR          = .14577007E-2
MEAN_MOTION_DOT = .319879E-2
MEAN_MOTION_DDOT = 0

CCSDS_OMM_VERS = 2.0
CREATION_DATE  = 
ORIGINATOR     = 

OBJECT_NAME    = STARLINK-36611
OBJECT_ID      = 2026-033K
CENTER_NAME    = EARTH
REF_FRAME      = TEME
TIME_SYSTEM    = UTC
MEAN_ELEMENT_THEORY = SGP/SGP4

EPOCH          = 2026-03-08T14:44:35.803392
MEAN_MOTION    = 15.82134275
ECCENTRICITY   = .00012374
INCLINATION    = 42.9974
RA_OF_ASC_NODE = 278.0189
ARG_OF_PERICENTER = 276.0273
MEAN_ANOMALY   = 84.0458

EPHEMERIS_TYPE = 0
CLASSIFICATION_TYPE = U
NORAD_CAT_ID   = 67830
ELEMENT_SET_NO = 999
REV_AT_EPOCH   = 445
BSTAR          = .14729733E-2
MEAN_MOTION_DOT = .323271E-2
MEAN_MOTION_DDOT = 0

CCSDS_OMM_VERS = 2.0
CREATION_DATE  = 
ORIGINATOR     = 

OBJECT_NAME    = STARLINK-36661
OBJECT_ID      = 2026-033L
CENTER_NAME    = EARTH
REF_FRAME      = TEME
TIME_SYSTEM    = UTC
MEAN_ELEMENT_THEORY = SGP/SGP4

EPOCH          = 2026-03-08T14:43:30.767520
MEAN_MOTION    = 15.82171678
ECCENTRICITY   = .00013611
INCLINATION    = 42.9974
RA_OF_ASC_NODE = 278.0128
ARG_OF_PERICENTER = 242.6823
MEAN_ANOMALY   = 117.3910

EPHEMERIS_TYPE = 0
CLASSIFICATION_TYPE = U
NORAD_CAT_ID   = 67831
ELEMENT_SET_NO = 999
REV_AT_EPOCH   = 445
BSTAR          = .16732531E-2
MEAN_MOTION_DOT = .369959E-2
MEAN_MOTION_DDOT = 0

CCSDS_OMM_VERS = 2.0
CREATION_DATE  = 
ORIGINATOR     = 

OBJECT_NAME    = STARLINK-36662
OBJECT_ID      = 2026-033M
CENTER_NAME    = EARTH
REF_FRAME      = TEME
TIME_SYSTEM    = UTC
MEAN_ELEMENT_THEORY = SGP/SGP4

EPOCH          = 2026-03-08T14:47:16.807200
MEAN_MOTION    = 15.84488039
ECCENTRICITY   = .00022927
INCLINATION    = 42.9963
RA_OF_ASC_NODE = 277.1248
ARG_OF_PERICENTER = 272.6133
MEAN_ANOMALY   = 87.4477

EPHEMERIS_TYPE = 0
CLASSIFICATION_TYPE = U
NORAD_CAT_ID   = 67832
ELEMENT_SET_NO = 999
REV_AT_EPOCH   = 446
BSTAR          = .11005987E-2
MEAN_MOTION_DOT = .268154E-2
MEAN_MOTION_DDOT = 0

CCSDS_OMM_VERS = 2.0
CREATION_DATE  = 
ORIGINATOR     = 

OBJECT_NAME    = STARLINK-36659
OBJECT_ID      = 2026-033N
CENTER_NAME    = EARTH
REF_FRAME      = TEME
TIME_SYSTEM    = UTC
MEAN_ELEMENT_THEORY = SGP/SGP4

EPOCH          = 2026-03-08T14:42:26.351136
MEAN_MOTION    = 15.82055363
ECCENTRICITY   = .00016381
INCLINATION    = 42.9979
RA_OF_ASC_NODE = 278.0068
ARG_OF_PERICENTER = 254.9300
MEAN_ANOMALY   = 105.1390

EPHEMERIS_TYPE = 0
CLASSIFICATION_TYPE = U
NORAD_CAT_ID   = 67833
ELEMENT_SET_NO = 999
REV_AT_EPOCH   = 445
BSTAR          = .11731683E-2
MEAN_MOTION_DOT = .254356E-2
MEAN_MOTION_DDOT = 0

CCSDS_OMM_VERS = 2.0
CREATION_DATE  = 
ORIGINATOR     = 

OBJECT_NAME    = STARLINK-36655
OBJECT_ID      = 2026-033P
CENTER_NAME    = EARTH
REF_FRAME      = TEME
TIME_SYSTEM    = UTC
MEAN_ELEMENT_THEORY = SGP/SGP4

EPOCH          = 2026-03-08T14:41:21.545952
MEAN_MOTION    = 15.82124229
ECCENTRICITY   = .00015046
INCLINATION    = 42.9975
RA_OF_ASC_NODE = 278.0007
ARG_OF_PERICENTER = 267.9490
MEAN_ANOMALY   = 92.1210

EPHEMERIS_TYPE = 0
CLASSIFICATION_TYPE = U
NORAD_CAT_ID   = 67834
ELEMENT_SET_NO = 999
REV_AT_EPOCH   = 445
BSTAR          = .23223027E-2
MEAN_MOTION_DOT = .521756E-2
MEAN_MOTION_DDOT = 0

CCSDS_OMM_VERS = 2.0
CREATION_DATE  = 
ORIGINATOR     = 

OBJECT_NAME    = STARLINK-36657
OBJECT_ID      = 2026-033Q
CENTER_NAME    = EARTH
REF_FRAME      = TEME
TIME_SYSTEM    = UTC
MEAN_ELEMENT_THEORY = SGP/SGP4

EPOCH          = 2026-03-08T14:40:16.826304
MEAN_MOTION    = 15.82120194
ECCENTRICITY   = .00014662
INCLINATION    = 42.9973
RA_OF_ASC_NODE = 277.9941
ARG_OF_PERICENTER = 264.6469
MEAN_ANOMALY   = 95.4235

EPHEMERIS_TYPE = 0
CLASSIFICATION_TYPE = U
NORAD_CAT_ID   = 67835
ELEMENT_SET_NO = 999
REV_AT_EPOCH   = 445
BSTAR          = .23352489E-2
MEAN_MOTION_DOT = .524756E-2
MEAN_MOTION_DDOT = 0

CCSDS_OMM_VERS = 2.0
CREATION_DATE  = 
ORIGINATOR     = 

OBJECT_NAME    = STARLINK-36650
OBJECT_ID      = 2026-033R
CENTER_NAME    = EARTH
REF_FRAME      = TEME
TIME_SYSTEM    = UTC
MEAN_ELEMENT_THEORY = SGP/SGP4

EPOCH          = 2026-03-08T14:39:12.355488
MEAN_MOTION    = 15.82076271
ECCENTRICITY   = .00019699
INCLINATION    = 42.9973
RA_OF_ASC_NODE = 277.9880
ARG_OF_PERICENTER = 315.0130
MEAN_ANOMALY   = 45.0582

EPHEMERIS_TYPE = 0
CLASSIFICATION_TYPE = U
NORAD_CAT_ID   = 67836
ELEMENT_SET_NO = 999
REV_AT_EPOCH   = 445
BSTAR          = .17086128E-2
MEAN_MOTION_DOT = .376388E-2
MEAN_MOTION_DDOT = 0

CCSDS_OMM_VERS = 2.0
CREATION_DATE  = 
ORIGINATOR     = 

OBJECT_NAME    = STARLINK-36649
OBJECT_ID      = 2026-033S
CENTER_NAME    = EARTH
REF_FRAME      = TEME
TIME_SYSTEM    = UTC
MEAN_ELEMENT_THEORY = SGP/SGP4

EPOCH          = 2026-03-08T14:38:07.454400
MEAN_MOTION    = 15.82120172
ECCENTRICITY   = .00018206
INCLINATION    = 42.9974
RA_OF_ASC_NODE = 277.9825
ARG_OF_PERICENTER = 289.3704
MEAN_ANOMALY   = 70.6971

EPHEMERIS_TYPE = 0
CLASSIFICATION_TYPE = U
NORAD_CAT_ID   = 67837
ELEMENT_SET_NO = 999
REV_AT_EPOCH   = 445
BSTAR          = .14527848E-2
MEAN_MOTION_DOT = .318441E-2
MEAN_MOTION_DDOT = 0

CCSDS_OMM_VERS = 2.0
CREATION_DATE  = 
ORIGINATOR     = 

OBJECT_NAME    = STARLINK-36654
OBJECT_ID      = 2026-033T
CENTER_NAME    = EARTH
REF_FRAME      = TEME
TIME_SYSTEM    = UTC
MEAN_ELEMENT_THEORY = SGP/SGP4

EPOCH          = 2026-03-08T14:37:02.419392
MEAN_MOTION    = 15.82105271
ECCENTRICITY   = .0001741
INCLINATION    = 42.9976
RA_OF_ASC_NODE = 277.9760
ARG_OF_PERICENTER = 275.2018
MEAN_ANOMALY   = 84.8655

EPHEMERIS_TYPE = 0
CLASSIFICATION_TYPE = U
NORAD_CAT_ID   = 67838
ELEMENT_SET_NO = 999
REV_AT_EPOCH   = 445
BSTAR          = .12078085E-2
MEAN_MOTION_DOT = .262752E-2
MEAN_MOTION_DDOT = 0

CCSDS_OMM_VERS = 2.0
CREATION_DATE  = 
ORIGINATOR     = 

OBJECT_NAME    = STARLINK-36652
OBJECT_ID      = 2026-033U
CENTER_NAME    = EARTH
REF_FRAME      = TEME
TIME_SYSTEM    = UTC
MEAN_ELEMENT_THEORY = SGP/SGP4

EPOCH          = 2026-03-08T14:35:57.790464
MEAN_MOTION    = 15.82087957
ECCENTRICITY   = .00017629
INCLINATION    = 42.9974
RA_OF_ASC_NODE = 277.9696
ARG_OF_PERICENTER = 253.8600
MEAN_ANOMALY   = 106.2077

EPHEMERIS_TYPE = 0
CLASSIFICATION_TYPE = U
NORAD_CAT_ID   = 67839
ELEMENT_SET_NO = 999
REV_AT_EPOCH   = 445
BSTAR          = .20024794E-2
MEAN_MOTION_DOT = .445026E-2
MEAN_MOTION_DDOT = 0

CCSDS_OMM_VERS = 2.0
CREATION_DATE  = 
ORIGINATOR     = 

OBJECT_NAME    = STARLINK-36651
OBJECT_ID      = 2026-033V
CENTER_NAME    = EARTH
REF_FRAME      = TEME
TIME_SYSTEM    = UTC
MEAN_ELEMENT_THEORY = SGP/SGP4

EPOCH          = 2026-03-08T14:34:53.368896
MEAN_MOTION    = 15.82069647
ECCENTRICITY   = .00017766
INCLINATION    = 42.9981
RA_OF_ASC_NODE = 277.9633
ARG_OF_PERICENTER = 272.1720
MEAN_ANOMALY   = 87.8949

EPHEMERIS_TYPE = 0
CLASSIFICATION_TYPE = U
NORAD_CAT_ID   = 67840
ELEMENT_SET_NO = 999
REV_AT_EPOCH   = 445
BSTAR          = .1426831E-2
MEAN_MOTION_DOT = .311761E-2
MEAN_MOTION_DDOT = 0

