STARLINK-36144          
1 67829U 26033J   26067.61505170  .00319879  00000+0  14577-2 0  9994
2 67829  42.9975 278.0255 0001054 264.4461  95.6290 15.82140327  4453
STARLINK-36611          
1 67830U 26033K   26067.61430328  .00323271  00000+0  14730-2 0  9990
2 67830  42.9974 278.0189 0001237 276.0273  84.0458 15.82134275  4456
STARLINK-36661          
1 67831U 26033L   26067.61355055  .00369959  00000+0  16733-2 0  9992
2 67831  42.9974 278.0128 0001361 242.6823 117.3910 15.82171678  4459
STARLINK-36662          
1 67832U 26033M   26067.61616675  .00268154  00000+0  11006-2 0  9994
2 67832  42.9963 277.1248 0002292 272.6133  87.4477 15.84488039  4462
STARLINK-36659          
1 67833U 26033N   26067.61280499  .00254356  00000+0  11732-2 0  9991
2 67833  42.9979 278.0068 0001638 254.9300 105.1390 15.82055363  4451
STARLINK-36655          
1 67834U 26033P   26067.61205493  .00521756  00000+0  23223-2 0  9992
2 67834  42.9975 278.0007 0001504 267.9490  92.1210 15.82124229  4451
STARLINK-36657          
1 67835U 26033Q   26067.61130586  .00524756  00000+0  23352-2 0  9999
2 67835  42.9973 277.9941 0001466 264.6469  95.4235 15.82120194  4452
STARLINK-36650          
1 67836U 26033R   26067.61055967  .00376388  00000+0  17086-2 0  9992
2 67836  42.9973 277.9880 0001969 315.0130  45.0582 15.82076271  4451
STARLINK-36649          
1 67837U 26033S   26067.60980850  .00318441  00000+0  14528-2 0  9994
2 67837  42.9974 277.9825 0001820 289.3704  70.6971 15.82120172  4454
STARLINK-36654          
1 67838U 26033T   26067.60905578  .00262752  00000+0  12078-2 0  9990
2 67838  42.9976 277.9760 0001741 275.2018  84.8655 15.82105271  4458
STARLINK-36652          
1 67839U 26033U   26067.60830776  .00445026  00000+0  20025-2 0  9996
2 67839  42.9974 277.9696 0001762 253.8600 106.2077 15.82087957  4454
STARLINK-36651          
1 67840U 26033V   26067.60756214  .00311761  00000+0  14268-2 0  9992
2 67840  42.9981 277.9633 0001776 272.1720  87.8949 15.82069647  4455
